provider_code,provider_name,city,country,address,email
PMCH1,PMPF CO,Дунгуань,Китай,,Belmorning@dayrep.com
JTCH2,JTT UAV,Шэньчжэнь,Китай,,Saver1974@jourrapide.com
LTCH3,LEAP TOY CO LTD,Шаньто,Китай,Chenghai district,Conem1960@dayrep.com
XQCH4,XQ POWER MODEL ELECTRONICS CO,Шэньчжэнь,Китай,,Ouseetteled@fleckens.hu
ZECH5,ZEGO ELECTRONIC,Гонконг,Китай,360A Shau Kei Wan Road,Smuctingly@rhyta.com
GDCH6,GUANG DONG XING,Шаньто,Китай,,Liket1940@einrot.com
YWCH7,YI WU JIU LE CHU,Иу,Китай,shan lu 1006hao 601shi,Feled1962@gustr.com
STCH8,SHAN TOU SHI TONG ,Шаньто,Китай,,Fackons1980@fleckens.hu
SZCH9,SHEN ZHEN VANDE RCAI,Шэньчжэнь,Китай,Building A of Huali Industrial Park 28th District Baoan,Shartair1965@jourrapide.com
NJCH10,NAN JING YI MO,Нанкин,Китай,yu jie 54hao,Thoub1990@dayrep.com
RCIN1,RC SKY HOBBY,Нью-Дели, Индия,221 Patparganj Industrial Estates,Neave1981@fleckens.hu
PIN2,PATLIPUTRA EDUCATIONAL TOYS,Патна, Индия,shivpur mahendru near dhiru cyber cafe,Actur1996@teleworm.us
SPIN3,SOLE PROPRIETORSHIP,Руркее,Индия,12 Civil Lines,Shamortaiss@superrito.com
SMIN4,SHARMA MODEL AERO ENGINES,Джодхпур,Индия,Jai Narayan Building Ratanada Road,Suggetsmence@armyspy.com
BMBL1,BMI N.V,Контиш,Бельгия,Mechelsesteenweg 309,Leye1935@einrot.com
AGBL2,AGFA-GEVAERTN.V,Мортсел,Бельгия,Septestraat 27,Vineary@fleckens.hu
MSGB1,MODEL SHOP,Колерейн,Великобритания,10 Church Lane,Dievendin@dayrep.com
HCGB2,HOBBY CORNER,Врексксам,Великобритания,112 Chester Road,Thersid43@dayrep.com
IMGB3,ICARUS MODELS,Бэнгор,Великобритания,127 High Street,Hort1948@jourrapide.com
EVGB4,EVERGREEN HOBBIES,Суонси,Великобритания,Cann Barn Mellington Church Stoke Montgomery,Tices1941@jourrapide.com
CRGB5,CYCLELIFE RATCLIFFE'S OF LEIGH,Леиг,Великобритания,113a Bradshawgate Lancashire,Puld1947@dayrep.com
DMGB6,DCR MODELS,Бэлимани,Великобритания,63 Main Street,Alkees@fleckens.hu
KVUK1,КВАДРОКОПТЕР,Киев,Украина,Леся Курбаса 2-Б,Muchend@rhyta.com
DMUK2,DEVICE-MARKET,Харьков,Украина,пр-т Гагарина 181,Noullooduady@dayrep.com
HBUK3,ХОББИЗОН,Киев,Украина,,Coungthe@armyspy.com
